[{"OBJECT_NAME":"STARLINK-30561","OBJECT_ID":"2023-156E","EPOCH":"2026-03-09T07:20:20.312160","MEAN_MOTION":15.30190388,"ECCENTRICITY":0.00012635,"INCLINATION":53.1613,"RA_OF_ASC_NODE":80.2291,"ARG_OF_PERICENTER":88.5537,"MEAN_ANOMALY":271.5609,"EPHEMERIS_TYPE":0,"CLASSIFICATION_TYPE":"U","NORAD_CAT_ID":58032,"ELEMENT_SET_NO":999,"REV_AT_EPOCH":13625,"BSTAR":-8.17844e-6,"MEAN_MOTION_DOT":-6.01e-6,"MEAN_MOTION_DDOT":0},{"OBJECT_NAME":"FLOCK 4G-13","OBJECT_ID":"2025-009N","EPOCH":"2026-03-09T16:57:12.071808","MEAN_MOTION":15.32770015,"ECCENTRICITY":0.0003801,"INCLINATION":97.4019,"RA_OF_ASC_NODE":151.0918,"ARG_OF_PERICENTER":292.7207,"MEAN_ANOMALY":67.3633,"EPHEMERIS_TYPE":0,"CLASSIFICATION_TYPE":"U","NORAD_CAT_ID":62621,"ELEMENT_SET_NO":999,"REV_AT_EPOCH":6370,"BSTAR":0.0016695386,"MEAN_MOTION_DOT":0.00053076,"MEAN_MOTION_DDOT":0}]
