STARLINK-30561          
1 58032U 23156E   26068.30579065 -.00000601  00000+0 -81784-5 0  9993
2 58032  53.1613  80.2291 0001263  88.5537 271.5609 15.30190388136254
FLOCK 4G-13             
1 62621U 25009N   26068.70638971  .00053076  00000+0  16695-2 0  9995
2 62621  97.4019 151.0918 0003801 292.7207  67.3633 15.32770015 63700
